GLOBALSTAR M001 [-]     
1 25162U 98008A   24019.34370552 -.00000112  00000+0 -11953-3 0  9993
2 25162  52.0054  31.6707 0001562 242.1629 221.2385 12.38174028179936
GLOBALSTAR M004 [-]     
1 25163U 98008B   24019.59485062 -.00000064  00000+0  22278-3 0  9991
2 25163  51.9970 183.9933 0002455 207.4167 228.1028 12.63348737196642
GLOBALSTAR M002 [-]     
1 25164U 98008C   24019.45373183 -.00000085  00000+0 -17437-3 0  9992
2 25164  52.0017  90.7991 0000923 249.0374 111.0347 11.61497155124254
GLOBALSTAR M003 [-]     
1 25165U 98008D   24019.60840870  .00000048  00000+0  14694-2 0  9990
2 25165  51.9803 153.7593 0007393 342.6815 102.4084 12.11969546170822
GLOBALSTAR M014 [-]     
1 25306U 98023A   24019.47636594 -.00000058  00000+0  35651-3 0  9994
2 25306  51.9864  24.7864 0000933 133.7091  35.0947 11.65463415131156
GLOBALSTAR M006 [-]     
1 25307U 98023B   24019.51334130 -.00000097  00000+0 -42816-3 0  9996
2 25307  51.9951  57.9302 0003617 258.1315 272.7088 11.58156773157198
GLOBALSTAR M015 [-]     
1 25308U 98023C   24019.59357215 -.00000018  00000+0  12683-2 0  9994
2 25308  51.9817 132.6196 0011942 234.6688 225.4109 11.48858657134939
GLOBALSTAR M008 [-]     
1 25309U 98023D   24019.06575806 -.00000069  00000+0  21411-3 0  9991
2 25309  51.9951 251.4802 0002578 146.0378   1.7021 12.36034989174147
